{
  "type": "FeatureCollection",
  "features": [
    {
      "type": "Feature",
      "properties": {
        "norad_id": 30153,
        "name": "FENGYUN 1C DEB",
        "group": "fengyun-1c-debris",
        "lat": -44.606662533363284,
        "lon": 4.124576566922134,
        "alt_km": 831.2332324983117,
        "timestamp": "2025-12-27T16:33:30.496837+00:00",
        "meta_object_name": "FENGYUN 1C DEB",
        "meta_object_id": "1999-025TJ",
        "meta_epoch": "2025-12-27T12:08:31.380000",
        "meta_mean_motion": 13.78813577,
        "meta_eccentricity": 0.0200294,
        "meta_inclination": 100.4675,
        "meta_ra_of_asc_node": 353.4152,
        "meta_arg_of_pericenter": 328.1607,
        "meta_mean_anomaly": 153.9235,
        "meta_ephemeris_type": 0,
        "meta_classification_type": "U",
        "meta_norad_cat_id": 30153,
        "meta_element_set_no": 999,
        "meta_rev_at_epoch": 94978,
        "meta_bstar": 0.0014195,
        "meta_mean_motion_dot": 1.624e-05,
        "meta_mean_motion_ddot": 0,
        "tle_line1": "1 30153U 99025TJ  25361.50591875  .00001624  00000+0  14195-2 0  9998",
        "tle_line2": "2 30153 100.4675 353.4152 0200294 328.1607 153.9235 13.78813577949789"
      },
      "geometry": {
        "type": "Point",
        "coordinates": [
          4.124576566922134,
          -44.606662533363284
        ]
      }
    },
    {
      "type": "Feature",
      "properties": {
        "norad_id": 30154,
        "name": "FENGYUN 1C DEB",
        "group": "fengyun-1c-debris",
        "lat": -51.76675730928463,
        "lon": -148.84503115600964,
        "alt_km": 911.223051448641,
        "timestamp": "2025-12-27T16:33:30.496847+00:00",
        "meta_object_name": "FENGYUN 1C DEB",
        "meta_object_id": "1999-025TK",
        "meta_epoch": "2025-12-27T01:44:19.812192",
        "meta_mean_motion": 13.86043313,
        "meta_eccentricity": 0.01829215,
        "meta_inclination": 98.4491,
        "meta_ra_of_asc_node": 41.4717,
        "meta_arg_of_pericenter": 159.755,
        "meta_mean_anomaly": 231.3235,
        "meta_ephemeris_type": 0,
        "meta_classification_type": "U",
        "meta_norad_cat_id": 30154,
        "meta_element_set_no": 999,
        "meta_rev_at_epoch": 95183,
        "meta_bstar": 0.0015511735,
        "meta_mean_motion_dot": 1.999e-05,
        "meta_mean_motion_ddot": 0,
        "tle_line1": "1 30154U 99025TK  25361.07245153  .00001999  00000+0  15512-2 0  9995",
        "tle_line2": "2 30154  98.4491  41.4717 0182921 159.7550 231.3235 13.86043313951836"
      },
      "geometry": {
        "type": "Point",
        "coordinates": [
          -148.84503115600964,
          -51.76675730928463
        ]
      }
    },
    {
      "type": "Feature",
      "properties": {
        "norad_id": 30155,
        "name": "FENGYUN 1C DEB",
        "group": "fengyun-1c-debris",
        "lat": 24.965578227573406,
        "lon": -99.8861317222374,
        "alt_km": 1139.275774701542,
        "timestamp": "2025-12-27T16:33:30.496857+00:00",
        "meta_object_name": "FENGYUN 1C DEB",
        "meta_object_id": "1999-025TL",
        "meta_epoch": "2025-12-27T10:32:51.317376",
        "meta_mean_motion": 13.73865969,
        "meta_eccentricity": 0.0243035,
        "meta_inclination": 99.7507,
        "meta_ra_of_asc_node": 75.2666,
        "meta_arg_of_pericenter": 305.5135,
        "meta_mean_anomaly": 52.356,
        "meta_ephemeris_type": 0,
        "meta_classification_type": "U",
        "meta_norad_cat_id": 30155,
        "meta_element_set_no": 999,
        "meta_rev_at_epoch": 94066,
        "meta_bstar": 0.002151,
        "meta_mean_motion_dot": 2.446e-05,
        "meta_mean_motion_ddot": 0,
        "tle_line1": "1 30155U 99025TL  25361.43948284  .00002446  00000+0  21510-2 0  9994",
        "tle_line2": "2 30155  99.7507  75.2666 0243035 305.5135  52.3560 13.73865969940667"
      },
      "geometry": {
        "type": "Point",
        "coordinates": [
          -99.8861317222374,
          24.965578227573406
        ]
      }
    },
    {
      "type": "Feature",
      "properties": {
        "norad_id": 30156,
        "name": "FENGYUN 1C DEB",
        "group": "fengyun-1c-debris",
        "lat": 62.802784020368236,
        "lon": -49.929857938136486,
        "alt_km": 1089.6284309839957,
        "timestamp": "2025-12-27T16:33:30.496867+00:00",
        "meta_object_name": "FENGYUN 1C DEB",
        "meta_object_id": "1999-025TM",
        "meta_epoch": "2025-12-27T11:37:11.049024",
        "meta_mean_motion": 13.80853944,
        "meta_eccentricity": 0.0198423,
        "meta_inclination": 98.9194,
        "meta_ra_of_asc_node": 327.6701,
        "meta_arg_of_pericenter": 223.1176,
        "meta_mean_anomaly": 259.5832,
        "meta_ephemeris_type": 0,
        "meta_classification_type": "U",
        "meta_norad_cat_id": 30156,
        "meta_element_set_no": 999,
        "meta_rev_at_epoch": 94894,
        "meta_bstar": 0.0011686,
        "meta_mean_motion_dot": 1.387e-05,
        "meta_mean_motion_ddot": 0,
        "tle_line1": "1 30156U 99025TM  25361.48415566  .00001387  00000+0  11686-2 0  9998",
        "tle_line2": "2 30156  98.9194 327.6701 0198423 223.1176 259.5832 13.80853944948945"
      },
      "geometry": {
        "type": "Point",
        "coordinates": [
          -49.929857938136486,
          62.802784020368236
        ]
      }
    },
    {
      "type": "Feature",
      "properties": {
        "norad_id": 30157,
        "name": "FENGYUN 1C DEB",
        "group": "fengyun-1c-debris",
        "lat": -22.067783783357957,
        "lon": -84.45023174374887,
        "alt_km": 730.2739258996335,
        "timestamp": "2025-12-27T16:33:30.496877+00:00",
        "meta_object_name": "FENGYUN 1C DEB",
        "meta_object_id": "1999-025TN",
        "meta_epoch": "2025-12-24T06:30:03.653568",
        "meta_mean_motion": 14.45252792,
        "meta_eccentricity": 0.00369606,
        "meta_inclination": 98.7145,
        "meta_ra_of_asc_node": 95.607,
        "meta_arg_of_pericenter": 159.967,
        "meta_mean_anomaly": 262.7951,
        "meta_ephemeris_type": 0,
        "meta_classification_type": "U",
        "meta_norad_cat_id": 30157,
        "meta_element_set_no": 999,
        "meta_rev_at_epoch": 98239,
        "meta_bstar": 0.0021716886,
        "meta_mean_motion_dot": 7.642e-05,
        "meta_mean_motion_ddot": 0,
        "tle_line1": "1 30157U 99025TN  25358.27087562  .00007642  00000+0  21717-2 0  9999",
        "tle_line2": "2 30157  98.7145  95.6070 0036960 159.9670 262.7951 14.45252792982394"
      },
      "geometry": {
        "type": "Point",
        "coordinates": [
          -84.45023174374887,
          -22.067783783357957
        ]
      }
    },
    {
      "type": "Feature",
      "properties": {
        "norad_id": 30160,
        "name": "FENGYUN 1C DEB",
        "group": "fengyun-1c-debris",
        "lat": 21.088612019835573,
        "lon": 131.97717816537101,
        "alt_km": 996.1615739208983,
        "timestamp": "2025-12-27T16:33:30.496887+00:00",
        "meta_object_name": "FENGYUN 1C DEB",
        "meta_object_id": "1999-025TR",
        "meta_epoch": "2025-12-27T03:22:28.839648",
        "meta_mean_motion": 13.42916303,
        "meta_eccentricity": 0.03435854,
        "meta_inclination": 98.8876,
        "meta_ra_of_asc_node": 308.0325,
        "meta_arg_of_pericenter": 91.495,
        "meta_mean_anomaly": 289.0923,
        "meta_ephemeris_type": 0,
        "meta_classification_type": "U",
        "meta_norad_cat_id": 30160,
        "meta_element_set_no": 999,
        "meta_rev_at_epoch": 92607,
        "meta_bstar": 0.0014485196,
        "meta_mean_motion_dot": 1.138e-05,
        "meta_mean_motion_ddot": 0,
        "tle_line1": "1 30160U 99025TR  25361.14061157  .00001138  00000+0  14485-2 0  9993",
        "tle_line2": "2 30160  98.8876 308.0325 0343585  91.4950 289.0923 13.42916303926074"
      },
      "geometry": {
        "type": "Point",
        "coordinates": [
          131.97717816537101,
          21.088612019835573
        ]
      }
    },
    {
      "type": "Feature",
      "properties": {
        "norad_id": 30161,
        "name": "FENGYUN 1C DEB",
        "group": "fengyun-1c-debris",
        "lat": 73.75165301327526,
        "lon": -49.63674794100321,
        "alt_km": 1261.1476896107724,
        "timestamp": "2025-12-27T16:33:30.496898+00:00",
        "meta_object_name": "FENGYUN 1C DEB",
        "meta_object_id": "1999-025TS",
        "meta_epoch": "2025-12-27T11:29:40.677792",
        "meta_mean_motion": 13.49759258,
        "meta_eccentricity": 0.0327612,
        "meta_inclination": 100.507,
        "meta_ra_of_asc_node": 349.6906,
        "meta_arg_of_pericenter": 222.2491,
        "meta_mean_anomaly": 272.8196,
        "meta_ephemeris_type": 0,
        "meta_classification_type": "U",
        "meta_norad_cat_id": 30161,
        "meta_element_set_no": 999,
        "meta_rev_at_epoch": 92758,
        "meta_bstar": 0.0015003,
        "meta_mean_motion_dot": 1.275e-05,
        "meta_mean_motion_ddot": 0,
        "tle_line1": "1 30161U 99025TS  25361.47894303  .00001275  00000+0  15003-2 0  9996",
        "tle_line2": "2 30161 100.5070 349.6906 0327612 222.2491 272.8196 13.49759258927585"
      },
      "geometry": {
        "type": "Point",
        "coordinates": [
          -49.63674794100321,
          73.75165301327526
        ]
      }
    }
  ]
}